SL-16 R/B               
1 24298U 96051B   26192.18077822  .00000134  00000+0  99279-4 0  9998
2 24298  70.7649 273.8722 0017473 303.3134  56.6312 14.12454913539082
ORBVIEW 2 (SEASTAR)     
1 24883U 97037A   26190.74182676  .00000148  00000+0  67593-4 0  9996
2 24883  98.8708 358.3882 0003226  71.7834 288.3701 14.35565113525989
SL-16 R/B               
1 25400U 98043G   26191.30600858  .00000011  00000+0  23448-4 0  9990
2 25400  98.8377 145.6657 0010299  25.0584 335.1093 14.26072264456467
SL-16 R/B               
1 25407U 98045B   26191.26206603 -.00000231  00000+0 -92462-4 0  9992
2 25407  71.0120 283.8029 0008430 213.5475 146.5115 14.16207072444459
ISS (ZARYA)             
1 25544U 98067A   26192.18582566  .00005410  00000+0  10636-3 0  9999
2 25544  51.6302 181.3206 0006688 281.9973  78.0266 15.48977198575473
CZ-4B R/B               
1 25732U 99025C   26192.04399911 -.00000001  00000+0  20175-4 0  9990
2 25732  98.6473 233.2807 0036872 351.8111  20.0744 14.18287220405651
OKEAN-O                 
1 25860U 99039A   26191.59739230  .00000305  00000+0  46591-4 0  9994
2 25860  97.9304 250.1251 0000990  78.8596 281.2727 14.80494216452573
SL-16 R/B               
1 25861U 99039B   26192.13763166  .00000241  00000+0  37311-4 0  9990
2 25861  97.9825 250.9309 0014020 212.1406 147.8953 14.81868244455147
DELTA 2 R/B             
1 25876U 99041E   26191.81638990  .00001210  00000+0  23287-3 0  9992
2 25876  51.7614 169.3935 0501284 351.8278   7.4707 14.12072183380425
HELIOS 1B               
1 25977U 99064A   26192.18457891  .00000754  00000+0  88373-4 0  9999
2 25977  98.1591  98.0170 0002130  59.3122 300.8304 14.88069160703627
TERRA                   
1 25994U 99068A   26192.18700884  .00000196  00000+0  48846-4 0  9996
2 25994  97.9443 240.7802 0003247 130.6045 266.1172 14.61121721413116
SL-16 R/B               
1 26070U 00006B   26192.01573024 -.00000246  00000+0 -10057-3 0  9992
2 26070  71.0002 198.5212 0017018 345.8082  14.2560 14.15839169366013
TITAN 4B R/B            
1 26474U 00047B   26192.16703242  .00001457  00000+0  94998-4 0  9998
2 26474  67.9872  53.0688 0045932 262.7273  96.8654 15.10321424411553
ENVISAT                 
1 27386U 02009A   26191.34976940  .00000029  00000+0  23408-4 0  9999
2 27386  98.3846 142.1531 0001352  84.3059  63.5741 14.39070079276813
IDEFIX & ARIANE 42P R/B 
1 27422U 02021B   26191.27208050  .00000105  00000+0  56476-4 0  9992
2 27422  98.5942 128.5054 0011586 180.8092 179.3074 14.31092447261555
AQUA                    
1 27424U 02022A   26192.20974602  .00000431  00000+0  95483-4 0  9995
2 27424  98.4292 161.9750 0000822 106.4128 310.5864 14.62193614286783
CZ-4B R/B               
1 27432U 02024C   26192.13963816 -.00000003  00000+0  21309-4 0  9995
2 27432  98.8688 244.8027 0050693  33.4155 345.5308 14.14567794246691
MIDORI II (ADEOS-II)    
1 27597U 02056A   26191.30849168  .00000136  00000+0  71278-4 0  9999
2 27597  98.7892 150.7665 0001680  46.7248 313.4074 14.29361606227811
H-2A R/B                
1 27601U 02056E   26191.65555556  .00000127  00000+0  58694-4 0  9995
2 27601  98.3326 147.4762 0070627 154.3341 200.0518 14.33832351231727
CZ-4B R/B               
1 28059U 03049C   26190.99199359  .00000160  00000+0  48379-4 0  9993
2 28059  98.6906 190.7473 0047336 217.3645 142.4256 14.55113935204384
CZ-2C R/B               
1 28222U 04012C   26192.20373468  .00097493  00000+0  42570-3 0  9998
2 28222  97.7065 270.7549 0011208 203.1443 156.9322 15.84356462223699
SL-16 R/B               
1 28353U 04021B   26191.35481755  .00000168  00000+0  11210-3 0  9997
2 28353  71.0024 335.0662 0006435 229.1860 130.8705 14.14615417140180
CZ-4B R/B               
1 28415U 04035C   26192.12260955  .00004393  00000+0  14767-3 0  9998
2 28415  97.3364 224.9297 0028994 247.9190 111.8972 15.30955869198786
CZ-2C R/B               
1 28480U 04046B   26192.17154911  .00000046  00000+0  31987-4 0  9996
2 28480  98.1923  99.4509 0139913 149.2302 211.7177 14.27032308126116
ARIANE 5 R/B            
1 28499U 04049H   26191.97543075  .00000274  00000+0  37197-4 0  9991
2 28499  98.2738   5.1503 0082827 312.1460  47.2736 14.85475885164093
CZ-2D R/B               
1 28738U 05024B   26192.04297302  .00043939  00000+0  33160-3 0  9999
2 28738  97.3480 212.7080 0001724 205.7161 154.4017 15.72363493159085
ALOS (DAICHI)           
1 28931U 06002A   26190.82412380  .00000659  00000+0  11792-3 0  9999
2 28931  98.1335 146.3228 0000779  84.1885 275.9410 14.70095524 91428
H-2A R/B                
1 28932U 06002B   26191.51779324  .00006037  00000+0  28784-3 0  9996
2 28932  98.2582 349.4657 0050522 181.8998 178.2050 15.18397978113068
RESURS-DK 1             
1 29228U 06021A   26192.22838867  .00001017  00000+0  63072-4 0  9996
2 29228  69.9327 277.3163 0006874 275.5943  84.4439 15.13310988106211
CZ-4B R/B               
1 29507U 06046C   26191.98542222  .00002489  00000+0  12443-3 0  9991
2 29507  97.5442 236.5191 0032169 196.8314 163.1855 15.17960336 78742
